STARLINK-36335          
1 68015U 26040A   26088.37399291  .00213711  00000+0  13941-2 0  9993
2 68015  97.2860  37.7845 0001885  89.8386 270.3095 15.75255572  4455
STARLINK-36923          
1 68016U 26040B   26087.86471411  .00161372  00000+0  10601-2 0  9997
2 68016  97.2860  37.2542 0001752  65.9812 294.1637 15.75241812  4376
STARLINK-36568          
1 68017U 26040C   26089.19821717  .00318947  00000+0  20981-2 0  9998
2 68017  97.2878  38.6554 0004642   0.8734 359.2539 15.74762528  4584
STARLINK-36930          
1 68018U 26040D   26088.37364173  .00400117  00000+0  25642-2 0  9996
2 68018  97.2867  37.7861 0001784  80.9014 279.2453 15.75149379  4454
STARLINK-36921          
1 68019U 26040E   26089.19592830 -.00744503  00000+0 -58251-2 0  9995
2 68019  97.2865  38.6613 0001273  73.3272 286.8132 15.73612984  4580
STARLINK-36928          
1 68020U 26040F   26089.19676840 -.00635800  00000+0 -47443-2 0  9991
2 68020  97.2856  38.6580 0000783 305.3637  54.7555 15.74419777  4580
STARLINK-36858          
1 68021U 26040G   26083.53835390  .00276588  00000+0  17848-2 0  9999
2 68021  97.2853  32.8877 0001694  78.8231 281.3225 15.75331784  3704
STARLINK-36916          
1 68022U 26040H   26089.25002315 -.01873884  00000+0 -24116-1 0  9998
2 68022  97.2855  38.6910 0001921 109.1685 133.1076 15.62150409  5735
STARLINK-36871          
1 68023U 26040J   26089.13083481  .00429213  00000+0  28044-2 0  9994
2 68023  97.2866  38.5927 0002565  52.0324 308.1172 15.74618586  4576
STARLINK-36891          
1 68024U 26040K   26088.36764245  .00093464  00000+0  62028-3 0  9999
2 68024  97.2862  37.7939 0001948 113.0545 247.0926 15.75203077  4455
STARLINK-36378          
1 68025U 26040L   26089.12866902  .00513154  00000+0  32145-2 0  9997
2 68025  97.2850  38.5984 0018501 193.7011 166.3755 15.75181155  4576
STARLINK-36884          
1 68026U 26040M   26088.87492225  .01791738  00000+0  10400-1 0  9998
2 68026  97.2860  38.3293 0010012 176.6070 183.5265 15.75507419  4531
