CCSDS_OMM_VERS = 2.0
CREATION_DATE  = 
ORIGINATOR     = 

OBJECT_NAME    = STARLINK-36335
OBJECT_ID      = 2026-040A
CENTER_NAME    = EARTH
REF_FRAME      = TEME
TIME_SYSTEM    = UTC
MEAN_ELEMENT_THEORY = SGP/SGP4

EPOCH          = 2026-03-29T08:58:32.987424
MEAN_MOTION    = 15.75255572
ECCENTRICITY   = .00018857
INCLINATION    = 97.2860
RA_OF_ASC_NODE = 37.7845
ARG_OF_PERICENTER = 89.8386
MEAN_ANOMALY   = 270.3095

EPHEMERIS_TYPE = 0
CLASSIFICATION_TYPE = U
NORAD_CAT_ID   = 68015
ELEMENT_SET_NO = 999
REV_AT_EPOCH   = 445
BSTAR          = .13941404E-2
MEAN_MOTION_DOT = .213711E-2
MEAN_MOTION_DDOT = 0

CCSDS_OMM_VERS = 2.0
CREATION_DATE  = 
ORIGINATOR     = 

OBJECT_NAME    = STARLINK-36923
OBJECT_ID      = 2026-040B
CENTER_NAME    = EARTH
REF_FRAME      = TEME
TIME_SYSTEM    = UTC
MEAN_ELEMENT_THEORY = SGP/SGP4

EPOCH          = 2026-03-28T20:45:11.299104
MEAN_MOTION    = 15.75241812
ECCENTRICITY   = .00017522
INCLINATION    = 97.2860
RA_OF_ASC_NODE = 37.2542
ARG_OF_PERICENTER = 65.9812
MEAN_ANOMALY   = 294.1637

EPHEMERIS_TYPE = 0
CLASSIFICATION_TYPE = U
NORAD_CAT_ID   = 68016
ELEMENT_SET_NO = 999
REV_AT_EPOCH   = 437
BSTAR          = .10600654E-2
MEAN_MOTION_DOT = .161372E-2
MEAN_MOTION_DDOT = 0

CCSDS_OMM_VERS = 2.0
CREATION_DATE  = 
ORIGINATOR     = 

OBJECT_NAME    = STARLINK-36568
OBJECT_ID      = 2026-040C
CENTER_NAME    = EARTH
REF_FRAME      = TEME
TIME_SYSTEM    = UTC
MEAN_ELEMENT_THEORY = SGP/SGP4

EPOCH          = 2026-03-30T04:45:25.963488
MEAN_MOTION    = 15.74762528
ECCENTRICITY   = .00046426
INCLINATION    = 97.2878
RA_OF_ASC_NODE = 38.6554
ARG_OF_PERICENTER = 0.8734
MEAN_ANOMALY   = 359.2539

EPHEMERIS_TYPE = 0
CLASSIFICATION_TYPE = U
NORAD_CAT_ID   = 68017
ELEMENT_SET_NO = 999
REV_AT_EPOCH   = 458
BSTAR          = .20980682E-2
MEAN_MOTION_DOT = .318947E-2
MEAN_MOTION_DDOT = 0

CCSDS_OMM_VERS = 2.0
CREATION_DATE  = 
ORIGINATOR     = 

OBJECT_NAME    = STARLINK-36930
OBJECT_ID      = 2026-040D
CENTER_NAME    = EARTH
REF_FRAME      = TEME
TIME_SYSTEM    = UTC
MEAN_ELEMENT_THEORY = SGP/SGP4

EPOCH          = 2026-03-29T08:58:02.645472
MEAN_MOTION    = 15.75149379
ECCENTRICITY   = .00017847
INCLINATION    = 97.2867
RA_OF_ASC_NODE = 37.7861
ARG_OF_PERICENTER = 80.9014
MEAN_ANOMALY   = 279.2453

EPHEMERIS_TYPE = 0
CLASSIFICATION_TYPE = U
NORAD_CAT_ID   = 68018
ELEMENT_SET_NO = 999
REV_AT_EPOCH   = 445
BSTAR          = .25641967E-2
MEAN_MOTION_DOT = .400117E-2
MEAN_MOTION_DDOT = 0

CCSDS_OMM_VERS = 2.0
CREATION_DATE  = 
ORIGINATOR     = 

OBJECT_NAME    = STARLINK-36921
OBJECT_ID      = 2026-040E
CENTER_NAME    = EARTH
REF_FRAME      = TEME
TIME_SYSTEM    = UTC
MEAN_ELEMENT_THEORY = SGP/SGP4

EPOCH          = 2026-03-30T04:42:08.205120
MEAN_MOTION    = 15.73612984
ECCENTRICITY   = .00012735
INCLINATION    = 97.2865
RA_OF_ASC_NODE = 38.6613
ARG_OF_PERICENTER = 73.3272
MEAN_ANOMALY   = 286.8132

EPHEMERIS_TYPE = 0
CLASSIFICATION_TYPE = U
NORAD_CAT_ID   = 68019
ELEMENT_SET_NO = 999
REV_AT_EPOCH   = 458
BSTAR          = -.58250664E-2
MEAN_MOTION_DOT = -.744503E-2
MEAN_MOTION_DDOT = 0

CCSDS_OMM_VERS = 2.0
CREATION_DATE  = 
ORIGINATOR     = 

OBJECT_NAME    = STARLINK-36928
OBJECT_ID      = 2026-040F
CENTER_NAME    = EARTH
REF_FRAME      = TEME
TIME_SYSTEM    = UTC
MEAN_ELEMENT_THEORY = SGP/SGP4

EPOCH          = 2026-03-30T04:43:20.789760
MEAN_MOTION    = 15.74419777
ECCENTRICITY   = .00007839
INCLINATION    = 97.2856
RA_OF_ASC_NODE = 38.6580
ARG_OF_PERICENTER = 305.3637
MEAN_ANOMALY   = 54.7555

EPHEMERIS_TYPE = 0
CLASSIFICATION_TYPE = U
NORAD_CAT_ID   = 68020
ELEMENT_SET_NO = 999
REV_AT_EPOCH   = 458
BSTAR          = -.47442674E-2
MEAN_MOTION_DOT = -.6358E-2
MEAN_MOTION_DDOT = 0

CCSDS_OMM_VERS = 2.0
CREATION_DATE  = 
ORIGINATOR     = 

OBJECT_NAME    = STARLINK-36858
OBJECT_ID      = 2026-040G
CENTER_NAME    = EARTH
REF_FRAME      = TEME
TIME_SYSTEM    = UTC
MEAN_ELEMENT_THEORY = SGP/SGP4

EPOCH          = 2026-03-24T12:55:13.776960
MEAN_MOTION    = 15.75331784
ECCENTRICITY   = .00016946
INCLINATION    = 97.2853
RA_OF_ASC_NODE = 32.8877
ARG_OF_PERICENTER = 78.8231
MEAN_ANOMALY   = 281.3225

EPHEMERIS_TYPE = 0
CLASSIFICATION_TYPE = U
NORAD_CAT_ID   = 68021
ELEMENT_SET_NO = 999
REV_AT_EPOCH   = 370
BSTAR          = .17848498E-2
MEAN_MOTION_DOT = .276588E-2
MEAN_MOTION_DDOT = 0

CCSDS_OMM_VERS = 2.0
CREATION_DATE  = 
ORIGINATOR     = 

OBJECT_NAME    = STARLINK-36916
OBJECT_ID      = 2026-040H
CENTER_NAME    = EARTH
REF_FRAME      = TEME
TIME_SYSTEM    = UTC
MEAN_ELEMENT_THEORY = SGP/SGP4

EPOCH          = 2026-03-30T06:00:02.000160
MEAN_MOTION    = 15.62150409
ECCENTRICITY   = .00019216
INCLINATION    = 97.2855
RA_OF_ASC_NODE = 38.6910
ARG_OF_PERICENTER = 109.1685
MEAN_ANOMALY   = 133.1076

EPHEMERIS_TYPE = 0
CLASSIFICATION_TYPE = U
NORAD_CAT_ID   = 68022
ELEMENT_SET_NO = 999
REV_AT_EPOCH   = 573
BSTAR          = -.24115753E-1
MEAN_MOTION_DOT = -.1873884E-1
MEAN_MOTION_DDOT = 0

CCSDS_OMM_VERS = 2.0
CREATION_DATE  = 
ORIGINATOR     = 

OBJECT_NAME    = STARLINK-36871
OBJECT_ID      = 2026-040J
CENTER_NAME    = EARTH
REF_FRAME      = TEME
TIME_SYSTEM    = UTC
MEAN_ELEMENT_THEORY = SGP/SGP4

EPOCH          = 2026-03-30T03:08:24.127584
MEAN_MOTION    = 15.74618586
ECCENTRICITY   = .00025655
INCLINATION    = 97.2866
RA_OF_ASC_NODE = 38.5927
ARG_OF_PERICENTER = 52.0324
MEAN_ANOMALY   = 308.1172

EPHEMERIS_TYPE = 0
CLASSIFICATION_TYPE = U
NORAD_CAT_ID   = 68023
ELEMENT_SET_NO = 999
REV_AT_EPOCH   = 457
BSTAR          = .28043755E-2
MEAN_MOTION_DOT = .429213E-2
MEAN_MOTION_DDOT = 0

CCSDS_OMM_VERS = 2.0
CREATION_DATE  = 
ORIGINATOR     = 

OBJECT_NAME    = STARLINK-36891
OBJECT_ID      = 2026-040K
CENTER_NAME    = EARTH
REF_FRAME      = TEME
TIME_SYSTEM    = UTC
MEAN_ELEMENT_THEORY = SGP/SGP4

EPOCH          = 2026-03-29T08:49:24.307680
MEAN_MOTION    = 15.75203077
ECCENTRICITY   = .00019486
INCLINATION    = 97.2862
RA_OF_ASC_NODE = 37.7939
ARG_OF_PERICENTER = 113.0545
MEAN_ANOMALY   = 247.0926

EPHEMERIS_TYPE = 0
CLASSIFICATION_TYPE = U
NORAD_CAT_ID   = 68024
ELEMENT_SET_NO = 999
REV_AT_EPOCH   = 445
BSTAR          = .62027841E-3
MEAN_MOTION_DOT = .93464E-3
MEAN_MOTION_DDOT = 0

CCSDS_OMM_VERS = 2.0
CREATION_DATE  = 
ORIGINATOR     = 

OBJECT_NAME    = STARLINK-36378
OBJECT_ID      = 2026-040L
CENTER_NAME    = EARTH
REF_FRAME      = TEME
TIME_SYSTEM    = UTC
MEAN_ELEMENT_THEORY = SGP/SGP4

EPOCH          = 2026-03-30T03:05:17.003328
MEAN_MOTION    = 15.75181155
ECCENTRICITY   = .00185018
INCLINATION    = 97.2850
RA_OF_ASC_NODE = 38.5984
ARG_OF_PERICENTER = 193.7011
MEAN_ANOMALY   = 166.3755

EPHEMERIS_TYPE = 0
CLASSIFICATION_TYPE = U
NORAD_CAT_ID   = 68025
ELEMENT_SET_NO = 999
REV_AT_EPOCH   = 457
BSTAR          = .32144902E-2
MEAN_MOTION_DOT = .513154E-2
MEAN_MOTION_DDOT = 0

CCSDS_OMM_VERS = 2.0
CREATION_DATE  = 
ORIGINATOR     = 

OBJECT_NAME    = STARLINK-36884
OBJECT_ID      = 2026-040M
CENTER_NAME    = EARTH
REF_FRAME      = TEME
TIME_SYSTEM    = UTC
MEAN_ELEMENT_THEORY = SGP/SGP4

EPOCH          = 2026-03-29T20:59:53.282400
MEAN_MOTION    = 15.75507419
ECCENTRICITY   = .0010012
INCLINATION    = 97.2860
RA_OF_ASC_NODE = 38.3293
ARG_OF_PERICENTER = 176.6070
MEAN_ANOMALY   = 183.5265

EPHEMERIS_TYPE = 0
CLASSIFICATION_TYPE = U
NORAD_CAT_ID   = 68026
ELEMENT_SET_NO = 999
REV_AT_EPOCH   = 453
BSTAR          = .10400056E-1
MEAN_MOTION_DOT = .1791738E-1
MEAN_MOTION_DDOT = 0

